NAVSTAR 77 (USA 289)    
1 43873U 18109A   24169.80298510  .00000023  00000+0  00000+0 0  9992
2 43873  55.2979 121.0042 0029050 195.2748 318.7476  2.00556157 40445
